GLOBALSTAR M075         
1 37192U 10054E   25287.95850878 -.00000094  00000+0  52049-4 0  9993
2 37192  51.9934 176.8602 0000800  73.3326 299.3368 12.62268800690973
GLOBALSTAR M073         
1 37193U 10054F   25287.91122039 -.00000095  00000+0  47699-4 0  9997
2 37193  52.0046  90.9128 0000810 110.2628  46.5274 12.62263582692956
GLOBALSTAR M083         
1 37739U 11033A   25287.57561279 -.00000091  00000+0  71823-4 0  9998
2 37739  51.9875  40.4992 0000785 116.1349 256.4533 12.62276790661934
GLOBALSTAR M088         
1 37740U 11033B   25287.82183419 -.00000075  00000+0  15979-3 0  9995
2 37740  52.0218 305.5878 0000434  76.4120  94.1610 12.62268812657500
GLOBALSTAR M091         
1 37741U 11033C   25287.67670086 -.00000079  00000+0  13771-3 0  9992
2 37741  51.9989 269.3552 0000583  79.4044  92.0798 12.62260531658272
GLOBALSTAR M085         
1 37742U 11033D   25287.58427377 -.00000083  00000+0  11693-3 0  9992
2 37742  52.0119 220.7139 0000783  80.4254  90.7083 12.62265624658774
GLOBALSTAR M081         
1 37743U 11033E   25287.81459539 -.00000095  00000+0  47720-4 0  9998
2 37743  51.9952 222.7286 0000537  80.8024 297.0876 12.62269169658959
GLOBALSTAR M089         
1 37744U 11033F   25287.69579991 -.00000096  00000+0  44999-4 0  9996
2 37744  51.9920 177.2963 0000641  56.5665 321.9479 12.62267883659787
